{"type": "FeatureCollection", "features": [ {"type": "Feature", "properties": {"norad_id": 66819, "name": "STARLINK-35989", "group": "last-30-days", "lat": 3.367017659739011, "lon": 173.6118562673516, "alt_km": 414.46167846548724, "timestamp": "2025-12-26T10:30:48.975190+00:00", "meta": {"OBJECT_NAME": "STARLINK-35989", "OBJECT_ID": "2025-278AE", "EPOCH": "2025-12-26T04:00:01.998720", "MEAN_MOTION": 15.50546075, "ECCENTRICITY": 0.000161, "INCLINATION": 43.0003, "RA_OF_ASC_NODE": 171.5797, "ARG_OF_PERICENTER": 271.7096, "MEAN_ANOMALY": 16.6629, "EPHEMERIS_TYPE": 0, "CLASSIFICATION_TYPE": "U", "NORAD_CAT_ID": 66819, "ELEMENT_SET_NO": 999, "REV_AT_EPOCH": 511, "BSTAR": 0.00022515, "MEAN_MOTION_DOT": 0.00012873, "MEAN_MOTION_DDOT": 0}, "tle": {"line1": "1 66819U 25278AE  25360.16668980  .00012873  00000+0  22515-3 0  9992", "line2": "2 66819  43.0003 171.5797 0001610 271.7096  16.6629 15.50546075  5114"}}, "geometry": {"type": "Point", "coordinates": [173.6118562673516, 3.367017659739011]}}, {"type": "Feature", "properties": {"norad_id": 66820, "name": "KOMPSAT-7", "group": "last-30-days", "lat": 50.084290204789106, "lon": 135.308934399327, "alt_km": 559.2563140564362, "timestamp": "2025-12-26T10:30:48.975201+00:00", "meta": {"OBJECT_NAME": "KOMPSAT-7", "OBJECT_ID": "2025-279A", "EPOCH": "2025-12-25T13:08:14.231616", "MEAN_MOTION": 15.00813233, "ECCENTRICITY": 0.00097586, "INCLINATION": 97.6449, "RA_OF_ASC_NODE": 305.1939, "ARG_OF_PERICENTER": 217.4466, "MEAN_ANOMALY": 142.6079, "EPHEMERIS_TYPE": 0, "CLASSIFICATION_TYPE": "U", "NORAD_CAT_ID": 66820, "ELEMENT_SET_NO": 999, "REV_AT_EPOCH": 357, "BSTAR": 0.00023523549, "MEAN_MOTION_DOT": 2.931e-05, "MEAN_MOTION_DDOT": 0}, "tle": {"line1": "1 66820U 25279A   25359.54738694  .00002931  00000+0  23524-3 0  9990", "line2": "2 66820  97.6449 305.1939 0009758 217.4466 142.6079 15.00813233  3572"}}, "geometry": {"type": "Point", "coordinates": [135.308934399327, 50.084290204789106]}}, {"type": "Feature", "properties": {"norad_id": 66821, "name": "STARLINK-35966", "group": "last-30-days", "lat": -42.302837529893374, "lon": 0.2534821949287281, "alt_km": 413.9774752417152, "timestamp": "2025-12-26T10:30:48.975213+00:00", "meta": {"OBJECT_NAME": "STARLINK-35966", "OBJECT_ID": "2025-280A", "EPOCH": "2025-12-26T04:00:01.998720", "MEAN_MOTION": 15.52538042, "ECCENTRICITY": 0.0003241, "INCLINATION": 70.0004, "RA_OF_ASC_NODE": 161.6396, "ARG_OF_PERICENTER": 273.0882, "MEAN_ANOMALY": 236.3079, "EPHEMERIS_TYPE": 0, "CLASSIFICATION_TYPE": "U", "NORAD_CAT_ID": 66821, "ELEMENT_SET_NO": 999, "REV_AT_EPOCH": 505, "BSTAR": -0.0011397, "MEAN_MOTION_DOT": -0.00069718, "MEAN_MOTION_DDOT": 0}, "tle": {"line1": "1 66821U 25280A   25360.16668980 -.00069718  00000+0 -11397-2 0  9995", "line2": "2 66821  70.0004 161.6396 0003241 273.0882 236.3079 15.52538042  5053"}}, "geometry": {"type": "Point", "coordinates": [0.2534821949287281, -42.302837529893374]}}, {"type": "Feature", "properties": {"norad_id": 66822, "name": "STARLINK-35958", "group": "last-30-days", "lat": -44.119191206441414, "lon": 1.5780750188854988, "alt_km": 413.3955187467218, "timestamp": "2025-12-26T10:30:48.975224+00:00", "meta": {"OBJECT_NAME": "STARLINK-35958", "OBJECT_ID": "2025-280B", "EPOCH": "2025-12-25T21:09:55.876608", "MEAN_MOTION": 15.52524711, "ECCENTRICITY": 0.0003381, "INCLINATION": 70.0003, "RA_OF_ASC_NODE": 162.418, "ARG_OF_PERICENTER": 268.924, "MEAN_ANOMALY": 91.156, "EPHEMERIS_TYPE": 0, "CLASSIFICATION_TYPE": "U", "NORAD_CAT_ID": 66822, "ELEMENT_SET_NO": 999, "REV_AT_EPOCH": 497, "BSTAR": 0.0016095, "MEAN_MOTION_DOT": 0.00100126, "MEAN_MOTION_DDOT": 0}, "tle": {"line1": "1 66822U 25280B   25359.88189672  .00100126  00000+0  16095-2 0  9996", "line2": "2 66822  70.0003 162.4180 0003381 268.9240  91.1560 15.52524711  4979"}}, "geometry": {"type": "Point", "coordinates": [1.5780750188854988, -44.119191206441414]}}, {"type": "Feature", "properties": {"norad_id": 66823, "name": "STARLINK-35957", "group": "last-30-days", "lat": -45.656143911132986, "lon": 2.77244853362128, "alt_km": 413.83137652456935, "timestamp": "2025-12-26T10:30:48.975236+00:00", "meta": {"OBJECT_NAME": "STARLINK-35957", "OBJECT_ID": "2025-280C", "EPOCH": "2025-12-26T03:20:35.621088", "MEAN_MOTION": 15.52576353, "ECCENTRICITY": 0.000297, "INCLINATION": 70.0004, "RA_OF_ASC_NODE": 161.7106, "ARG_OF_PERICENTER": 277.8695, "MEAN_ANOMALY": 82.2155, "EPHEMERIS_TYPE": 0, "CLASSIFICATION_TYPE": "U", "NORAD_CAT_ID": 66823, "ELEMENT_SET_NO": 999, "REV_AT_EPOCH": 501, "BSTAR": 0.001778, "MEAN_MOTION_DOT": 0.00110979, "MEAN_MOTION_DDOT": 0}, "tle": {"line1": "1 66823U 25280C   25360.13930117  .00110979  00000+0  17780-2 0  9994", "line2": "2 66823  70.0004 161.7106 0002970 277.8695  82.2155 15.52576353  5013"}}, "geometry": {"type": "Point", "coordinates": [2.77244853362128, -45.656143911132986]}}, {"type": "Feature", "properties": {"norad_id": 66824, "name": "STARLINK-35896", "group": "last-30-days", "lat": -47.40507079591186, "lon": 4.228658971341554, "alt_km": 414.272805008879, "timestamp": "2025-12-26T10:30:48.975246+00:00", "meta": {"OBJECT_NAME": "STARLINK-35896", "OBJECT_ID": "2025-280D", "EPOCH": "2025-12-26T03:20:03.151968", "MEAN_MOTION": 15.52505752, "ECCENTRICITY": 0.0002862, "INCLINATION": 70.0004, "RA_OF_ASC_NODE": 161.7093, "ARG_OF_PERICENTER": 283.5959, "MEAN_ANOMALY": 76.4909, "EPHEMERIS_TYPE": 0, "CLASSIFICATION_TYPE": "U", "NORAD_CAT_ID": 66824, "ELEMENT_SET_NO": 999, "REV_AT_EPOCH": 501, "BSTAR": 0.0014905, "MEAN_MOTION_DOT": 0.00092558, "MEAN_MOTION_DDOT": 0}, "tle": {"line1": "1 66824U 25280D   25360.13892537  .00092558  00000+0  14905-2 0  9996", "line2": "2 66824  70.0004 161.7093 0002862 283.5959  76.4909 15.52505752  5013"}}, "geometry": {"type": "Point", "coordinates": [4.228658971341554, -47.40507079591186]}}, {"type": "Feature", "properties": {"norad_id": 66825, "name": "STARLINK-35476", "group": "last-30-days", "lat": -49.0629454090405, "lon": 5.717154302285388, "alt_km": 413.93095437596094, "timestamp": "2025-12-26T10:30:48.975256+00:00", "meta": {"OBJECT_NAME": "STARLINK-35476", "OBJECT_ID": "2025-280E", "EPOCH": "2025-12-26T03:19:33.409632", "MEAN_MOTION": 15.52529206, "ECCENTRICITY": 0.0003254, "INCLINATION": 70.0005, "RA_OF_ASC_NODE": 161.7076, "ARG_OF_PERICENTER": 278.4871, "MEAN_ANOMALY": 81.5947, "EPHEMERIS_TYPE": 0, "CLASSIFICATION_TYPE": "U", "NORAD_CAT_ID": 66825, "ELEMENT_SET_NO": 999, "REV_AT_EPOCH": 501, "BSTAR": 0.0011129, "MEAN_MOTION_DOT": 0.0006892, "MEAN_MOTION_DDOT": 0}, "tle": {"line1": "1 66825U 25280E   25360.13858113  .00068920  00000+0  11129-2 0  9990", "line2": "2 66825  70.0005 161.7076 0003254 278.4871  81.5947 15.52529206  5017"}}, "geometry": {"type": "Point", "coordinates": [5.717154302285388, -49.0629454090405]}}, {"type": "Feature", "properties": {"norad_id": 66826, "name": "STARLINK-35898", "group": "last-30-days", "lat": -50.50588291568212, "lon": 7.112027576891897, "alt_km": 414.3171384036996, "timestamp": "2025-12-26T10:30:48.975266+00:00", "meta": {"OBJECT_NAME": "STARLINK-35898", "OBJECT_ID": "2025-280F", "EPOCH": "2025-12-26T03:19:06.286080", "MEAN_MOTION": 15.52478939, "ECCENTRICITY": 0.0002872, "INCLINATION": 70.0005, "RA_OF_ASC_NODE": 161.7058, "ARG_OF_PERICENTER": 280.1158, "MEAN_ANOMALY": 79.9705, "EPHEMERIS_TYPE": 0, "CLASSIFICATION_TYPE": "U", "NORAD_CAT_ID": 66826, "ELEMENT_SET_NO": 999, "REV_AT_EPOCH": 501, "BSTAR": 0.00097536, "MEAN_MOTION_DOT": 0.00060204, "MEAN_MOTION_DDOT": 0}, "tle": {"line1": "1 66826U 25280F   25360.13826720  .00060204  00000+0  97536-3 0  9994", "line2": "2 66826  70.0005 161.7058 0002872 280.1158  79.9705 15.52478939  5010"}}, "geometry": {"type": "Point", "coordinates": [7.112027576891897, -50.50588291568212]}}, {"type": "Feature", "properties": {"norad_id": 66827, "name": "STARLINK-35959", "group": "last-30-days", "lat": -52.20034375975424, "lon": 8.888412847015768, "alt_km": 414.1453988124513, "timestamp": "2025-12-26T10:30:48.975276+00:00", "meta": {"OBJECT_NAME": "STARLINK-35959", "OBJECT_ID": "2025-280G", "EPOCH": "2025-12-26T03:18:35.703072", "MEAN_MOTION": 15.52530275, "ECCENTRICITY": 0.0003044, "INCLINATION": 70.0006, "RA_OF_ASC_NODE": 161.7048, "ARG_OF_PERICENTER": 282.699, "MEAN_ANOMALY": 77.3857, "EPHEMERIS_TYPE": 0, "CLASSIFICATION_TYPE": "U", "NORAD_CAT_ID": 66827, "ELEMENT_SET_NO": 999, "REV_AT_EPOCH": 501, "BSTAR": 0.00095084, "MEAN_MOTION_DOT": 0.00058785, "MEAN_MOTION_DDOT": 0}, "tle": {"line1": "1 66827U 25280G   25360.13791323  .00058785  00000+0  95084-3 0  9992", "line2": "2 66827  70.0006 161.7048 0003044 282.6990  77.3857 15.52530275  5016"}}, "geometry": {"type": "Point", "coordinates": [8.888412847015768, -52.20034375975424]}}, {"type": "Feature", "properties": {"norad_id": 66828, "name": "STARLINK-35982", "group": "last-30-days", "lat": -55.3526272127272, "lon": 12.683131661024873, "alt_km": 413.6428205835864, "timestamp": "2025-12-26T10:30:48.975285+00:00", "meta": {"OBJECT_NAME": "STARLINK-35982", "OBJECT_ID": "2025-280H", "EPOCH": "2025-12-26T03:17:36.222720", "MEAN_MOTION": 15.52545403, "ECCENTRICITY": 0.0003271, "INCLINATION": 70.0006, "RA_OF_ASC_NODE": 161.7016, "ARG_OF_PERICENTER": 271.069, "MEAN_ANOMALY": 89.0122, "EPHEMERIS_TYPE": 0, "CLASSIFICATION_TYPE": "U", "NORAD_CAT_ID": 66828, "ELEMENT_SET_NO": 999, "REV_AT_EPOCH": 501, "BSTAR": 0.0014788, "MEAN_MOTION_DOT": 0.00091954, "MEAN_MOTION_DDOT": 0}, "tle": {"line1": "1 66828U 25280H   25360.13722480  .00091954  00000+0  14788-2 0  9997", "line2": "2 66828  70.0006 161.7016 0003271 271.0690  89.0122 15.52545403  5017"}}, "geometry": {"type": "Point", "coordinates": [12.683131661024873, -55.3526272127272]}}]}